NORAD_CAT_ID,OBJECT_NAME,OBJECT_TYPE,EPOCH,MEAN_MOTION,ECCENTRICITY,INCLINATION,RA_OF_ASC_NODE,ARG_OF_PERICENTER,MEAN_ANOMALY,BSTAR,MEAN_MOTION_DOT,MEAN_MOTION_DDOT,TLE_LINE0,TLE_LINE1,TLE_LINE2,SEMIMAJOR_AXIS,PERIOD,APOGEE,PERIGEE,DECAYED
52311.0,STARLINK-3750,PAYLOAD,2024-01-01 23:11:18,15.08833909,9.68e-05,53.2175,70.2437,80.0896,280.0205,0.00010535,1.389e-05,0.0,0 STARLINK-3750,1 52311U 22041BC  24001.96619045  .00001389  00000-0  10535-3 0  9996,2 52311  53.2175  70.2437 0000968  80.0896 280.0205 15.08833909 95438,6917.899,95.438,540.434,539.094,0.0
52311.0,STARLINK-3750,PAYLOAD,2024-01-02 11:54:23,15.08844478,0.0001279,53.2168,67.8647,87.6507,272.4632,0.00017616,2.517e-05,0.0,0 STARLINK-3750,1 52311U 22041BC  24002.49610671  .00002517  00000-0  17616-3 0  9992,2 52311  53.2168  67.8647 0001279  87.6507 272.4632 15.08844478 95514,6917.867,95.437,540.616,538.847,0.0
52311.0,STARLINK-3750,PAYLOAD,2024-01-02 13:29:46,15.08847266,0.0001244,53.2167,67.5666,97.3153,262.7981,0.00021254,3.097e-05,0.0,0 STARLINK-3750,1 52311U 22041BC  24002.56234468  .00003097  00000-0  21254-3 0  9993,2 52311  53.2167  67.5666 0001244  97.3153 262.7981 15.08847266 95526,6917.858,95.437,540.584,538.863,0.0
52311.0,STARLINK-3750,PAYLOAD,2024-01-03 03:48:15,15.08835831,0.0001289,53.2171,64.8869,116.9966,243.1157,-3.662e-05,-8.71e-06,0.0,0 STARLINK-3750,1 52311U 22041BC  24003.15850870 -.00000871  00000-0 -36620-4 0  9993,2 52311  53.2171  64.8869 0001289 116.9966 243.1157 15.08835831 95618,6917.893,95.438,540.65,538.866,0.0
52311.0,STARLINK-3750,PAYLOAD,2024-01-03 10:09:47,15.08841106,0.0001445,53.2174,63.7001,110.2562,249.8585,3.9599e-05,3.42e-06,0.0,0 STARLINK-3750,1 52311U 22041BC  24003.42346823  .00000342  00000-0  39599-4 0  9990,2 52311  53.2174  63.7001 0001445 110.2562 249.8585 15.08841106 95654,6917.877,95.437,540.742,538.742,0.0
52311.0,STARLINK-3750,PAYLOAD,2024-01-04 10:00:34,15.0884885,0.0001449,53.2165,59.2402,94.3764,265.7394,0.00023985,3.532e-05,0.0,0 STARLINK-3750,1 52311U 22041BC  24004.41706673  .00003532  00000-0  23985-3 0  9998,2 52311  53.2165  59.2402 0001449  94.3764 265.7394 15.08848850 95804,6917.853,95.437,540.721,538.716,0.0
52311.0,STARLINK-3750,PAYLOAD,2024-01-05 03:29:49,15.08842612,0.0001597,53.2162,55.97,76.4603,283.6567,0.00016634,2.36e-05,0.0,0 STARLINK-3750,1 52311U 22041BC  24005.14571024  .00002360  00000-0  16634-3 0  9990,2 52311  53.2162  55.9700 0001597  76.4603 283.6567 15.08842612 95915,6917.872,95.437,540.842,538.633,0.0
52311.0,STARLINK-3750,PAYLOAD,2024-01-05 09:51:21,15.08842256,0.0001537,53.2169,54.7802,91.5631,268.5537,0.00013342,1.836e-05,0.0,0 STARLINK-3750,1 52311U 22041BC  24005.41066939  .00001836  00000-0  13342-3 0  9994,2 52311  53.2169  54.7802 0001537  91.5631 268.5537 15.08842256 95952,6917.873,95.437,540.802,538.675,0.0
52311.0,STARLINK-3750,PAYLOAD,2024-01-06 08:06:45,15.08839156,0.0001544,53.2177,50.6175,98.2288,261.8879,8.7164e-06,-1.49e-06,0.0,0 STARLINK-3750,1 52311U 22041BC  24006.33803128 -.00000149  00000-0  87164-5 0  9997,2 52311  53.2177  50.6175 0001544  98.2288 261.8879 15.08839156 96095,6917.883,95.438,540.816,538.68,0.0
52311.0,STARLINK-3750,PAYLOAD,2024-01-07 09:32:56,15.08837294,0.0001534,53.2177,45.8597,96.8606,263.2561,5.5656e-05,5.98e-06,0.0,0 STARLINK-3750,1 52311U 22041BC  24007.39787220  .00000598  00000-0  55656-4 0  9995,2 52311  53.2177  45.8597 0001534  96.8606 263.2561 15.08837294 96259,6917.889,95.438,540.815,538.692,0.0
52311.0,STARLINK-3750,PAYLOAD,2024-01-08 07:48:20,15.08838723,0.0001627,53.2183,41.6982,104.2465,255.8708,0.00011191,1.493e-05,0.0,0 STARLINK-3750,1 52311U 22041BC  24008.32523174  .00001493  00000-0  11191-3 0  9995,2 52311  53.2183  41.6982 0001627 104.2465 255.8708 15.08838723 96391,6917.884,95.438,540.875,538.624,0.0
52311.0,STARLINK-3750,PAYLOAD,2024-01-09 01:17:34,15.08838805,0.0001597,53.2178,38.4252,104.8297,255.2872,0.00010512,1.385e-05,0.0,0 STARLINK-3750,1 52311U 22041BC  24009.05387258  .00001385  00000-0  10512-3 0  9993,2 52311  53.2178  38.4252 0001597 104.8297 255.2872 15.08838805 96504,6917.884,95.438,540.854,538.644,0.0
52311.0,STARLINK-3750,PAYLOAD,2024-01-09 09:14:30,15.08838767,0.0001546,53.2176,36.9383,95.0264,265.0904,0.00010761,1.425e-05,0.0,0 STARLINK-3750,1 52311U 22041BC  24009.38507404  .00001425  00000-0  10761-3 0  9997,2 52311  53.2176  36.9383 0001546  95.0264 265.0904 15.08838767 96556,6917.884,95.438,540.819,538.68,0.0
52311.0,STARLINK-3750,PAYLOAD,2024-01-10 09:05:17,15.08847227,0.0001526,53.2177,32.4778,93.5673,266.5494,0.0001142,1.53e-05,0.0,0 STARLINK-3750,1 52311U 22041BC  24010.37866932  .00001530  00000-0  11420-3 0  9992,2 52311  53.2177  32.4778 0001526  93.5673 266.5494 15.08847227 96709,6917.858,95.437,540.779,538.668,0.0
52311.0,STARLINK-3750,PAYLOAD,2024-01-11 00:59:08,15.08842184,0.0001491,53.2178,29.5043,89.7078,270.4085,0.00010727,1.42e-05,0.0,0 STARLINK-3750,1 52311U 22041BC  24011.04107201  .00001420  00000-0  10727-3 0  9991,2 52311  53.2178  29.5043 0001491  89.7078 270.4085 15.08842184 96807,6917.874,95.437,540.77,538.707,0.0
52311.0,STARLINK-3750,PAYLOAD,2024-01-11 07:20:41,15.08843297,0.0001493,53.2179,28.315,89.8956,270.2207,0.0001062,1.403e-05,0.0,0 STARLINK-3750,1 52311U 22041BC  24011.30603109  .00001403  00000-0  10620-3 0  9991,2 52311  53.2179  28.3150 0001493  89.8956 270.2207 15.08843297 96846,6917.87,95.437,540.768,538.702,0.0
52311.0,STARLINK-3750,PAYLOAD,2024-01-12 04:00:42,15.08842664,0.0001575,53.2183,24.4501,87.9864,272.1308,2.5804e-05,1.23e-06,0.0,0 STARLINK-3750,1 52311U 22041BC  24012.16715333  .00000123  00000-0  25804-4 0  9998,2 52311  53.2183  24.4501 0001575  87.9864 272.1308 15.08842664 96970,6917.872,95.437,540.827,538.648,0.0
52311.0,STARLINK-3750,PAYLOAD,2024-01-12 10:22:14,15.08846882,0.000159,53.2182,23.2589,108.1844,251.9321,8.053e-05,9.94e-06,0.0,0 STARLINK-3750,1 52311U 22041BC  24012.43210762  .00000994  00000-0  80530-4 0  9997,2 52311  53.2182  23.2589 0001590 108.1844 251.9321 15.08846882 97015,6917.859,95.437,540.824,538.624,0.0
52311.0,STARLINK-3750,PAYLOAD,2024-01-12 21:29:56,15.08841982,0.0002013,53.2184,21.1717,133.0243,227.0918,-5.7807e-05,-1.208e-05,0.0,0 STARLINK-3750,1 52311U 22041BC  24012.89579377 -.00001208  00000-0 -57807-4 0  9999,2 52311  53.2184  21.1717 0002013 133.0243 227.0918 15.08841982 97087,6917.874,95.437,541.132,538.347,0.0
52311.0,STARLINK-3750,PAYLOAD,2024-01-13 03:51:29,15.08836387,0.0001814,53.2175,19.9872,109.913,250.2058,-2.2708e-05,-6.49e-06,0.0,0 STARLINK-3750,1 52311U 22041BC  24013.16075802 -.00000649  00000-0 -22708-4 0  9994,2 52311  53.2175  19.9872 0001814 109.9130 250.2058 15.08836387 97120,6917.891,95.438,541.011,538.502,0.0
52311.0,STARLINK-3750,PAYLOAD,2024-01-13 07:02:15,15.08836492,0.0001732,53.2188,19.3945,108.338,251.78,2.668e-05,1.37e-06,0.0,0 STARLINK-3750,1 52311U 22041BC  24013.29323752  .00000137  00000-0  26680-4 0  9991,2 52311  53.2188  19.3945 0001732 108.3380 251.7800 15.08836492 97148,6917.891,95.438,540.954,538.558,0.0
52311.0,STARLINK-3750,PAYLOAD,2024-01-14 05:17:39,15.08837806,0.0001678,53.2189,15.2288,114.9361,245.1806,3.3504e-05,2.45e-06,0.0,0 STARLINK-3750,1 52311U 22041BC  24014.22060037  .00000245  00000-0  33504-4 0  9992,2 52311  53.2189  15.2288 0001678 114.9361 245.1806 15.08837806 97283,6917.887,95.438,540.913,538.591,0.0
52311.0,STARLINK-3750,PAYLOAD,2024-01-15 05:08:26,15.08844426,0.0001563,53.2194,10.7729,105.7688,254.3477,0.00019737,2.855e-05,0.0,0 STARLINK-3750,1 52311U 22041BC  24015.21419716  .00002855  00000-0  19737-3 0  9994,2 52311  53.2194  10.7729 0001563 105.7688 254.3477 15.08844426 97431,6917.867,95.437,540.813,538.651,0.0
52311.0,STARLINK-3750,PAYLOAD,2024-01-16 09:45:23,15.08847704,0.0001894,53.2187,5.4149,116.4664,243.6523,-6.7452e-05,-1.362e-05,0.0,0 STARLINK-3750,1 52311U 22041BC  24016.40652230 -.00001362  00000-0 -67452-4 0  9998,2 52311  53.2187   5.4149 0001894 116.4664 243.6523 15.08847704 97615,6917.857,95.437,541.032,538.412,0.0
52311.0,STARLINK-3750,PAYLOAD,2024-01-17 06:25:23,15.08847406,0.0001514,53.2173,1.5505,102.5094,257.6068,8.2185e-05,1.02e-05,0.0,0 STARLINK-3750,1 52311U 22041BC  24017.26763800  .00001020  00000-0  82185-4 0  9998,2 52311  53.2173   1.5505 0001514 102.5094 257.6068 15.08847406 97747,6917.858,95.437,540.77,538.675,0.0
52311.0,STARLINK-3750,PAYLOAD,2024-01-18 04:40:48,15.08841545,0.0001532,53.218,357.3873,92.6705,267.4462,8.2745e-05,1.029e-05,0.0,0 STARLINK-3750,1 52311U 22041BC  24018.19500590  .00001029  00000-0  82745-4 0  9997,2 52311  53.2180 357.3873 0001532  92.6705 267.4462 15.08841545 97883,6917.876,95.437,540.8,538.681,0.0
52311.0,STARLINK-3750,PAYLOAD,2024-01-18 06:16:11,15.08843379,0.0001471,53.2175,357.0907,107.3043,252.811,7.9288e-05,9.74e-06,0.0,0 STARLINK-3750,1 52311U 22041BC  24018.26124378  .00000974  00000-0  79288-4 0  9997,2 52311  53.2175 357.0907 0001471 107.3043 252.8110 15.08843379 97899,6917.87,95.437,540.753,538.717,0.0
52311.0,STARLINK-3750,PAYLOAD,2024-01-18 22:10:02,15.08843179,0.0001689,53.2176,354.1196,101.2662,258.852,0.00014329,1.993e-05,0.0,0 STARLINK-3750,1 52311U 22041BC  24018.92364567  .00001993  00000-0  14329-3 0  9992,2 52311  53.2176 354.1196 0001689 101.2662 258.8520 15.08843179 97999,6917.871,95.437,540.904,538.567,0.0
52311.0,STARLINK-3750,PAYLOAD,2024-01-19 07:42:21,15.08858073,0.0001628,53.2174,352.3319,109.11,251.0069,0.00030888,4.634e-05,0.0,0 STARLINK-3750,1 52311U 22041BC  24019.32107745  .00004634  00000-0  30888-3 0  9993,2 52311  53.2174 352.3319 0001628 109.1100 251.0069 15.08858073 98051,6917.825,95.436,540.816,538.564,0.0
52311.0,STARLINK-3750,PAYLOAD,2024-01-19 22:00:50,15.08835129,0.0001597,53.2176,349.6573,92.5299,267.5876,1.802e-05,-1e-08,0.0,0 STARLINK-3750,1 52311U 22041BC  24019.91725062 -.00000001  00000-0  18020-4 0  9996,2 52311  53.2176 349.6573 0001597  92.5299 267.5876 15.08835129 98148,6917.895,95.438,540.865,538.655,0.0
